*******************************************************************************
JPL/HORIZONS                      (2023 BU)                2025-Oct-05 04:10:24
Rec #:50553708 (+COV) Soln.date: 2024-Aug-08_06:19:37      # obs: 254 (10 days)
 
IAU76/J2000 helio. ecliptic osc. elements (au, days, deg., period=Julian yrs):
 
  EPOCH=  2459969.5 ! 2023-Jan-25.00 (TDB)         Residual RMS= .61928
   EC= .07135850903735774  QR= .9153635685574424   TP= 2460056.402233528
   OM= 306.5318107235213   W=  273.6017530456425   IN= 2.589558997810352
   A= .9857017777749346    MA= 272.4781069153847   ADIST= 1.056039986992427
   PER= .97865             N= 1.007130537          ANGMOM= .017035138
   DAN= .97631             DDN= .9851              L= 220.1372359
   B= -2.5844406           MOID= .00018829         TP= 2023-Apr-21.9022335280
 
Asteroid physical parameters (km, seconds, rotational period in hours):
   GM= n.a.                RAD= n.a.               ROTPER= .021583
   H= 29.69                G= .150                 B-V= n.a.
                           ALBEDO= n.a.            STYP= n.a.

ASTEROID comments: 
1: soln ref.= JPL#23, OCC=1           radar( 2 delay, 0 Dop.)
2: source=ORB
*******************************************************************************


*******************************************************************************
Ephemeris / WWW_USER Sun Oct  5 04:10:24 2025 Pasadena, USA      / Horizons    
*******************************************************************************
Target body name: (2023 BU)                       {source: JPL#23}
Center body name: Earth (399)                     {source: DE441}
Center-site name: GEOCENTRIC
*******************************************************************************
Start time      : A.D. 2023-Jan-21 00:00:00.0000 UT      
Stop  time      : A.D. 2023-Jan-31 00:00:00.0000 UT      
Step-size       : 60 minutes
*******************************************************************************
Target pole/equ : undefined
Target radii    : undefined                                                    
Center geodetic : 0.0, 0.0, -6378.137             {E-lon(deg),Lat(deg),Alt(km)}
Center cylindric: 0.0, 0.0, 0.0                   {E-lon(deg),Dxy(km),Dz(km)}
Center pole/equ : ITRF93                          {East-longitude positive}
Center radii    : 6378.137, 6378.137, 6356.752 km {Equator_a, b, pole_c}       
Target primary  : Sun
Vis. interferer : MOON (R_eq= 1737.400) km        {source: DE441}
Rel. light bend : Sun                             {source: DE441}
Rel. lght bnd GM: 1.3271E+11 km^3/s^2                                          
Small-body perts: Yes                             {source: SB441-N16}
Atmos refraction: NO (AIRLESS)
RA format       : HMS
Time format     : CAL 
Calendar mode   : Mixed Julian/Gregorian
EOP file        : eop.251003.p251230                                           
EOP coverage    : DATA-BASED 1962-JAN-20 TO 2025-OCT-03. PREDICTS-> 2025-DEC-29
Units conversion: 1 au= 149597870.700 km, c= 299792.458 km/s, 1 day= 86400.0 s 
Table cut-offs 1: Elevation (-90.0deg=NO ),Airmass (>38.000=NO), Daylight (NO )
Table cut-offs 2: Solar elongation (  0.0,180.0=NO ),Local Hour Angle( 0.0=NO )
Table cut-offs 3: RA/DEC angular rate (     0.0=NO )                           
*******************************************************************************
Initial IAU76/J2000 heliocentric ecliptic osculating elements (au, days, deg.):
  EPOCH=  2459969.5 ! 2023-Jan-25.00 (TDB)         Residual RMS= .61928        
   EC= .07135850903735774  QR= .9153635685574424   TP= 2460056.402233528       
   OM= 306.5318107235213   W=  273.6017530456425   IN= 2.589558997810352       
  Equivalent ICRF heliocentric cartesian coordinates (au, au/d):
   X=-5.585807334111443E-01  Y= 7.466856041597770E-01  Z= 3.255044783346349E-01
  VX=-1.351305344133843E-02 VY=-9.562138901216793E-03 VZ=-4.996700278555643E-03
Asteroid physical parameters (km, seconds, rotational period in hours):        
   GM= n.a.                RAD= n.a.               ROTPER= .021583             
   H= 29.69                G= .150                 B-V= n.a.                   
                           ALBEDO= n.a.            STYP= n.a.                  
********************************************************************************************************************************************************************************************************
 Date__(UT)__HR:MN     R.A._____(ICRF)_____DEC  a-mass mag_ex    APmag   S-brt                r        rdot             delta      deldot     S-O-T /r     S-T-O  SMAA_3sig SMIA_3sig    Theta Area_3sig
********************************************************************************************************************************************************************************************************
$$SOE
 2023-Jan-22 01:00     09 48 50.73 +43 41 05.6    n.a.   n.a.   20.548    n.a.   0.991170855532  -1.9903166  0.00815718870921  -2.5855671  149.0801 /L   30.6773      0.186     0.130   20.865 0.0760358
 2023-Jan-22 02:00     09 48 47.38 +43 40 48.8    n.a.   n.a.   20.530    n.a.   0.991122946593  -1.9913597  0.00809496151687  -2.5861887  149.1063 /L   30.6532      0.186     0.130   20.859 0.0760343
 2023-Jan-22 03:00     09 48 43.96 +43 40 31.5    n.a.   n.a.   20.513    n.a.   0.991075012404  -1.9924152  0.00803271917087  -2.5868262  149.1326 /L   30.6290      0.186     0.130   20.852 0.0760326
 2023-Jan-22 04:00     09 48 40.48 +43 40 13.9    n.a.   n.a.   20.495    n.a.   0.991027052661  -1.9934835  0.00797046128292  -2.5874801  149.1590 /L   30.6045      0.186     0.130   20.846 0.0760307
 2023-Jan-22 05:00     09 48 36.93 +43 39 55.8    n.a.   n.a.   20.477    n.a.   0.990979067053  -1.9945649  0.00790818745579  -2.5881506  149.1856 /L   30.5799      0.186     0.130   20.839 0.0760287
 2023-Jan-22 06:00     09 48 33.32 +43 39 37.3    n.a.   n.a.   20.459    n.a.   0.990931055260  -1.9956597  0.00784589728307  -2.5888382  149.2124 /L   30.5551      0.186     0.130   20.833 0.0760265
 2023-Jan-22 07:00     09 48 29.63 +43 39 18.4    n.a.   n.a.   20.441    n.a.   0.990883016955  -1.9967683  0.00778359034882  -2.5895433  149.2394 /L   30.5302      0.186     0.130   20.826 0.0760242
 2023-Jan-22 08:00     09 48 25.88 +43 38 59.1    n.a.   n.a.   20.423    n.a.   0.990834951803  -1.9978911  0.00772126622734  -2.5902663  149.2666 /L   30.5050      0.186     0.130   20.819 0.0760217
 2023-Jan-22 09:00     09 48 22.05 +43 38 39.3    n.a.   n.a.   20.405    n.a.   0.990786859458  -1.9990283  0.00765892448284  -2.5910077  149.2939 /L   30.4797      0.186     0.130   20.812 0.0760191
 2023-Jan-22 10:00     09 48 18.15 +43 38 19.0    n.a.   n.a.   20.386    n.a.   0.990738739567  -2.0001805  0.00759656466913  -2.5917678  149.3214 /L   30.4542      0.186     0.130   20.806 0.0760164
 2023-Jan-22 11:00     09 48 14.17 +43 37 58.2    n.a.   n.a.   20.367    n.a.   0.990690591765  -2.0013480  0.00753418632925  -2.5925471  149.3492 /L   30.4285      0.186     0.130   20.799 0.0760135
 2023-Jan-22 12:00     09 48 10.12 +43 37 37.0    n.a.   n.a.   20.348    n.a.   0.990642415681  -2.0025311  0.00747178899520  -2.5933460  149.3771 /L   30.4025      0.186     0.130   20.792 0.0760104
 2023-Jan-22 13:00     09 48 05.99 +43 37 15.3    n.a.   n.a.   20.329    n.a.   0.990594210931  -2.0037305  0.00740937218750  -2.5941652  149.4052 /L   30.3764      0.186     0.130   20.785 0.0760072
 2023-Jan-22 14:00     09 48 01.78 +43 36 53.0    n.a.   n.a.   20.310    n.a.   0.990545977120  -2.0049464  0.00734693541488  -2.5950050  149.4336 /L   30.3501      0.186     0.130   20.778 0.0760039
 2023-Jan-22 15:00     09 47 57.48 +43 36 30.3    n.a.   n.a.   20.291    n.a.   0.990497713845  -2.0061793  0.00728447817384  -2.5958660  149.4622 /L   30.3235      0.186     0.130   20.770 0.0760004
 2023-Jan-22 16:00     09 47 53.10 +43 36 06.9    n.a.   n.a.   20.271    n.a.   0.990449420689  -2.0074298  0.00722199994826  -2.5967487  149.4910 /L   30.2967      0.186     0.130   20.763 0.0759968
 2023-Jan-22 17:00     09 47 48.64 +43 35 43.1    n.a.   n.a.   20.251    n.a.   0.990401097226  -2.0086982  0.00715950020900  -2.5976537  149.5200 /L   30.2697      0.186     0.130   20.756 0.0759930
 2023-Jan-22 18:00     09 47 44.08 +43 35 18.7    n.a.   n.a.   20.231    n.a.   0.990352743015  -2.0099852  0.00709697841340  -2.5985815  149.5493 /L   30.2424      0.186     0.130   20.748 0.0759891
 2023-Jan-22 19:00     09 47 39.44 +43 34 53.6    n.a.   n.a.   20.211    n.a.   0.990304357605  -2.0112913  0.00703443400484  -2.5995327  149.5788 /L   30.2149      0.186     0.130   20.741 0.0759851
 2023-Jan-22 20:00     09 47 34.70 +43 34 28.0    n.a.   n.a.   20.191    n.a.   0.990255940530  -2.0126169  0.00697186641227  -2.6005080  149.6086 /L   30.1871      0.186     0.130   20.733 0.0759809
 2023-Jan-22 21:00     09 47 29.86 +43 34 01.8    n.a.   n.a.   20.170    n.a.   0.990207491313  -2.0139627  0.00690927504969  -2.6015080  149.6386 /L   30.1590      0.186     0.130   20.726 0.0759766
 2023-Jan-22 22:00     09 47 24.93 +43 33 34.9    n.a.   n.a.   20.150    n.a.   0.990159009461  -2.0153293  0.00684665931559  -2.6025332  149.6690 /L   30.1307      0.186     0.130   20.718 0.0759721
 2023-Jan-22 23:00     09 47 19.90 +43 33 07.4    n.a.   n.a.   20.129    n.a.   0.990110494468  -2.0167172  0.00678401859243  -2.6035845  149.6995 /L   30.1021      0.186     0.130   20.710 0.0759675
 2023-Jan-23 00:00     09 47 14.77 +43 32 39.2    n.a.   n.a.   20.108    n.a.   0.990061945811  -2.0181271  0.00672135224602  -2.6046625  149.7304 /L   30.0733      0.186     0.130   20.702 0.0759628
 2023-Jan-23 01:00     09 47 09.53 +43 32 10.3    n.a.   n.a.   20.086    n.a.   0.990013362953  -2.0195597  0.00665865962495  -2.6057679  149.7616 /L   30.0441      0.186     0.130   20.694 0.0759580
